STARLINK-36697          
1 67698U 26025F   26064.05223434  .00403764  00000+0  20031-2 0  9993
2 67698  97.2850 175.4586 0001634  54.2710 305.8710 15.80919796  5215
STARLINK-36716          
1 67699U 26025G   26064.16668981  .00096900  00000+0  64484-3 0  9997
2 67699  97.2850 175.5712 0001131  78.0011 192.3828 15.75130876  5282
STARLINK-36712          
1 67700U 26025H   26064.20229844  .00399309  00000+0  25353-2 0  9996
2 67700  97.2846 175.5594 0004018  70.8905 289.2795 15.75364847  5238
STARLINK-36713          
1 67701U 26025J   26064.20405850  .00487140  00000+0  30553-2 0  9999
2 67701  97.2850 175.5563 0001707  95.4059 264.7401 15.75408049  5241
STARLINK-36695          
1 67702U 26025K   26064.07912445  .00227983  00000+0  14860-2 0  9998
2 67702  97.2857 175.4177 0001246  54.8757 305.2625 15.75235357  5217
STARLINK-36630          
1 67703U 26025L   26063.28465923  .00173374  00000+0  88510-3 0  9993
2 67703  97.2851 174.6635 0002065 101.8148 258.3352 15.80886698  5096
STARLINK-36338          
1 67704U 26025M   26064.00002314 -.00035870  00000+0 -24031-3 0  9994
2 67704  97.2853 175.3893 0001567 123.9062 269.9642 15.75219148  5150
STARLINK-36316          
1 67705U 26025N   26063.30513056  .00271453  00000+0  17620-2 0  9999
2 67705  97.2857 174.6360 0001598  22.7500 337.3836 15.75210312  5095
STARLINK-36707          
1 67706U 26025P   26064.16668981  .00085574  00000+0  56982-3 0  9995
2 67706  97.2856 175.5876 0001364  66.4443 247.9244 15.75151017  4970
STARLINK-36645          
1 67707U 26025Q   26063.88077226  .00385062  00000+0  24718-2 0  9996
2 67707  97.2861 175.2306 0001064 171.3735 188.7549 15.75152092  5187
STARLINK-36287          
1 67708U 26025R   26064.16668981 -.01623105  00000+0 -11709-1 0  9994
2 67708  97.2858 175.6165 0001532  66.5286 316.7725 15.76668260  5287
STARLINK-36698          
1 67709U 26025S   26064.16668981 -.01873096  00000+0 -12854-1 0  9993
2 67709  97.2854 175.6344 0001702  64.5724   1.0087 15.77721073  5139
